1 45376U 20019S   23141.12880098  .00006131  00000-0  42965-3 0  9994
2 45376  53.0540  81.5624 0001196  94.1816 265.9309 15.06440993175453
1 45376U 20019S   23141.85864320 -.00003414  00000-0 -21047-3 0  9995
2 45376  53.0548  78.2864 0001649 117.9056 242.2100 15.06385940175562
1 45376U 20019S   23142.19037937 -.00007407  00000-0 -47917-3 0  9999
2 45376  53.0546  76.7961 0001320 112.9242 247.1887 15.06378549175618
1 45376U 20019S   23142.52211521 -.00002724  00000-0 -16415-3 0  9995
2 45376  53.0545  75.3075 0001417 118.6978 241.4153 15.06382151175666
1 45376U 20019S   23142.52211521 -.00002724  00000-0 -16415-3 0  9995
2 45376  53.0545  75.3075 0001417 118.6978 241.4153 15.06382151175666
1 45376U 20019S   23143.18559377  .00015922  00000-0  10856-2 0  9996
2 45376  53.0541  72.3292 0001459 125.0459 235.0667 15.06393243175766
1 45376U 20019S   23143.18559377  .00015922  00000-0  10856-2 0  9996
2 45376  53.0541  72.3292 0001459 125.0459 235.0667 15.06393243175766
1 45376U 20019S   23144.18080616  .00007856  00000-0  54578-3 0  9999
2 45376  53.0544  67.8603 0001565 126.7456 233.3677 15.06392815175910
1 45376U 20019S   23145.77312228  .00006169  00000-0  43257-3 0  9990
2 45376  53.0542  60.7134 0001422 108.1048 252.0096 15.06410911176150
1 45376U 20019S   23145.90581588  .00001593  00000-0  12582-3 0  9995
2 45376  53.0554  60.1145 0001211 125.9818 234.1284 15.06403488176170
1 45376U 20019S   23145.97216373  .00003440  00000-0  24969-3 0  9994
2 45376  53.0541  59.8183 0001080 110.3928 249.7177 15.06402572176184
1 45376U 20019S   23145.97216373  .00003440  00000-0  24969-3 0  9994
2 45376  53.0541  59.8183 0001080 110.3928 249.7177 15.06402572176184
1 45376U 20019S   23146.90101277  .00010550  00000-0  72575-3 0  9990
2 45376  53.0551  55.6461 0001379 125.2600 234.8518 15.06417293176327
1 45376U 20019S   23147.16639529  .00012936  00000-0  88507-3 0  9997
2 45376  53.0555  54.4574 0001078 101.9959 258.1151 15.06429085176365
1 45376U 20019S   23147.69717523 -.00000819  00000-0 -36091-4 0  9997
2 45376  53.0552  52.0750 0001688  95.7953 264.3228 15.06402875176444
1 45376U 20019S   23147.89621648 -.00001477  00000-0 -80309-4 0  9993
2 45376  53.0543  51.1782 0001394 120.9817 239.1309 15.06395809176474
1 45376U 20019S   23148.02891349 -.00000252  00000-0  19585-5 0  9994
2 45376  53.0545  50.5841 0000933  77.0696 283.0397 15.06391374176490
1 45376U 20019S   23148.02891349 -.00000252  00000-0  19585-5 0  9994
2 45376  53.0545  50.5841 0000933  77.0696 283.0397 15.06391374176490
1 45376U 20019S   23148.89142464  .00013113  00000-0  89743-3 0  9996
2 45376  53.0555  46.7139 0000973  86.6461 273.4639 15.06406967176620
1 45376U 20019S   23149.09046229  .00016517  00000-0  11246-2 0  9994
2 45376  53.0550  45.8207 0000992  91.4132 268.6971 15.06417531176658
1 45376U 20019S   23149.09046229  .00016517  00000-0  11246-2 0  9994
2 45376  53.0550  45.8207 0000992  91.4132 268.6971 15.06417531176658
1 45376U 20019S   23149.68758950  .00001959  00000-0  15035-3 0  9995
2 45376  53.0550  43.1400 0001036  95.7725 264.3382 15.06396082176745
1 45376U 20019S   23149.88662931 -.00001198  00000-0 -61510-4 0  9997
2 45376  53.0544  42.2422 0002006 140.6150 219.4985 15.06391647176777
1 45376U 20019S   23150.01932941  .00001132  00000-0  94891-4 0  9999
2 45376  53.0553  41.6507 0001019  92.7845 267.3260 15.06390417176799
1 45376U 20019S   23150.01932941  .00001132  00000-0  94891-4 0  9999
2 45376  53.0553  41.6507 0001019  92.7845 267.3260 15.06390417176799
1 45376U 20019S   23150.94818569  .00010100  00000-0  69588-3 0  9999
2 45376  53.0552  37.4803 0000865  88.4361 271.6727 15.06404946176938
1 45376U 20019S   23150.94818569  .00010100  00000-0  69588-3 0  9999
2 45376  53.0552  37.4803 0000865  88.4361 271.6727 15.06404946176938
1 45376U 20019S   23151.67800297  .00007888  00000-0  54772-3 0  9997
2 45376  53.0542  34.2037 0001001  89.8405 270.2699 15.06405963177044
1 45376U 20019S   23151.94339048  .00002675  00000-0  19839-3 0  9992
2 45376  53.0537  33.0132 0001085  86.1210 273.9903 15.06398780177087
1 45376U 20019S   23152.07608392  .00003400  00000-0  24700-3 0  9998
2 45376  53.0540  32.4169 0001171  91.5613 268.5510 15.06399868177102
1 45376U 20019S   23152.07608392  .00003400  00000-0  24700-3 0  9998
2 45376  53.0540  32.4169 0001171  91.5613 268.5510 15.06399868177102
1 45376U 20019S   23153.07126432  .00011444  00000-0  78511-3 0  9995
2 45376  53.0554  27.9501 0001196  87.4819 272.6307 15.06437931177255
1 45376U 20019S   23153.07126432  .00011444  00000-0  78511-3 0  9995
2 45376  53.0554  27.9501 0001196  87.4819 272.6307 15.06437931177255
1 45376U 20019S   23154.26552441  .00008840  00000-0  61178-3 0  9997
2 45376  53.0550  22.5908 0001263 110.9950 249.1174 15.06389385177436
1 45376U 20019S   23154.26552441  .00008840  00000-0  61178-3 0  9997
2 45376  53.0550  22.5908 0001263 110.9950 249.1174 15.06389385177436
1 45376U 20019S   23154.92899346  .00014673  00000-0  10017-2 0  9994
2 45376  53.0548  19.6122 0001172 112.8281 247.2832 15.06406754177536
1 45376U 20019S   23154.99533966  .00015298  00000-0  10434-2 0  9991
2 45376  53.0546  19.3145 0001201 114.2097 245.9018 15.06409577177548
1 45376U 20019S   23154.99533966  .00015298  00000-0  10434-2 0  9991
2 45376  53.0546  19.3145 0001201 114.2097 245.9018 15.06409577177548
1 45376U 20019S   23155.79150661  .00008798  00000-0  60874-3 0  9998
2 45376  53.0543  15.7402 0001267  94.5997 265.5137 15.06402848177669
1 45376U 20019S   23155.85785293  .00007941  00000-0  55138-3 0  9996
2 45376  53.0542  15.4424 0001049 103.7763 256.3342 15.06401636177672
1 45376U 20019S   23155.99054678  .00003063  00000-0  22447-3 0  9995
2 45376  53.0541  14.8464 0001132 110.7713 249.3397 15.06397334177697
1 45376U 20019S   23156.58766262  .00007908  00000-0  54896-3 0  9995
2 45376  53.0546  12.1643 0001011 118.9686 241.1404 15.06413821177786
1 45376U 20019S   23156.85304523  .00013675  00000-0  93453-3 0  9993
2 45376  53.0540  10.9747 0000969 111.6802 248.4290 15.06426257177827
1 45376U 20019S   23156.85304523  .00013675  00000-0  93453-3 0  9993
2 45376  53.0540  10.9747 0000969 111.6802 248.4290 15.06426257177827
1 45376U 20019S   23157.71555127  .00008512  00000-0  58937-3 0  9999
2 45376  53.0544   7.1031 0000970  80.4263 279.6836 15.06417426177955
1 45376U 20019S   23157.78190308  .00011115  00000-0  76354-3 0  9998
2 45376  53.0544   6.8047 0002142  56.3802 303.7391 15.06416094177968
1 45376U 20019S   23157.98093925  .00005476  00000-0  38622-3 0  9996
2 45376  53.0543   5.9109 0001288  80.3677 279.7457 15.06403631177994
1 45376U 20019S   23158.37902219  .00015749  00000-0  10737-2 0  9995
2 45376  53.0541   4.1236 0001364  84.5356 275.5788 15.06404323178057
1 45376U 20019S   23158.84344418  .00018803  00000-0  12770-2 0  9991
2 45376  53.0545   2.0385 0001313  85.9811 274.1328 15.06424002178127
1 45376U 20019S   23158.84344418  .00018803  00000-0  12770-2 0  9991
2 45376  53.0545   2.0385 0001313  85.9811 274.1328 15.06424002178127
1 45376U 20019S   23159.57326472  .00007964  00000-0  55285-3 0  9997
2 45376  53.0545 358.7622 0001078  69.6936 290.4168 15.06404085178231
1 45376U 20019S   23159.57326472  .00007964  00000-0  55285-3 0  9997
2 45376  53.0545 358.7622 0001078  69.6936 290.4168 15.06404085178231
1 45376U 20019S   23159.97134945  .00007424  00000-0  51692-3 0  9992
2 45376  53.0547 356.9750 0001184 101.9223 258.1899 15.06389861178294
1 45376U 20019S   23159.97134945  .00007424  00000-0  51692-3 0  9992
2 45376  53.0547 356.9750 0001184 101.9223 258.1899 15.06389861178294
1 45376U 20019S   23160.83386052  .00018207  00000-0  12376-2 0  9993
2 45376  53.0548 353.1037 0001143 103.3425 256.7691 15.06412344178429
1 45376U 20019S   23161.29828761  .00004210  00000-0  30133-3 0  9993
2 45376  53.0569 351.0237 0001196 116.2146 243.8966 15.06402305178497
1 45376U 20019S   23161.29828761  .00004210  00000-0  30133-3 0  9993
2 45376  53.0569 351.0237 0001196 116.2146 243.8966 15.06402305178497
1 45376U 20019S   23161.89541803  .00002158  00000-0  16373-3 0  9997
2 45376  53.0544 348.3386 0001114  95.5291 264.5825 15.06391598178589
1 45376U 20019S   23161.89541803  .00002158  00000-0  16373-3 0  9997
2 45376  53.0544 348.3386 0001114  95.5291 264.5825 15.06391598178589
1 45376U 20019S   23162.29350101  .00016725  00000-0  11390-2 0  9999
2 45376  53.0541 346.5514 0001066  92.3586 267.7525 15.06400410178640
1 45376U 20019S   23162.62523318  .00019201  00000-0  13039-2 0  9992
2 45376  53.0537 345.0620 0001017  90.2844 269.8261 15.06413726178696
1 45376U 20019S   23162.89061646  .00021153  00000-0  14337-2 0  9993
2 45376  53.0538 343.8707 0000977  89.4684 270.6417 15.06425443178732
1 45376U 20019S   23163.22235172  .00007460  00000-0  51902-3 0  9993
2 45376  53.0535 342.3820 0000927  87.7636 272.3459 15.06410810178784
1 45376U 20019S   23163.22235172  .00007460  00000-0  51902-3 0  9993
2 45376  53.0535 342.3820 0000927  87.7636 272.3459 15.06410810178784
1 45376U 20019S   23163.75313133  .00005508  00000-0  38838-3 0  9999
2 45376  53.0537 339.9988 0001205  86.6086 273.5041 15.06399315178865
1 45376U 20019S   23163.88582555  .00012094  00000-0  82933-3 0  9992
2 45376  53.0533 339.4041 0001221  85.5098 274.6031 15.06404291178888
1 45376U 20019S   23164.74832682  .00021474  00000-0  14549-2 0  9996
2 45376  53.0539 335.5313 0001250  81.5910 278.5220 15.06430897179014
1 45376U 20019S   23164.74832682  .00021474  00000-0  14549-2 0  9996
2 45376  53.0539 335.5313 0001250  81.5910 278.5220 15.06430897179014
1 45376U 20019S   23165.47814532  .00015925  00000-0  10854-2 0  9990
2 45376  53.0543 332.2542 0001451  77.9477 282.1674 15.06407168179128
1 45376U 20019S   23165.47814532  .00015925  00000-0  10854-2 0  9990
2 45376  53.0543 332.2542 0001451  77.9477 282.1674 15.06407168179128
1 45376U 20019S   23165.74353240  .00000377  00000-0  44184-4 0  9994
2 45376  53.0544 331.0625 0001159  95.7978 264.3143 15.06393231179169
